NORAD_CAT_ID,OBJECT_NAME,OBJECT_TYPE,EPOCH,MEAN_MOTION,ECCENTRICITY,INCLINATION,RA_OF_ASC_NODE,ARG_OF_PERICENTER,MEAN_ANOMALY,BSTAR,MEAN_MOTION_DOT,MEAN_MOTION_DDOT,TLE_LINE0,TLE_LINE1,TLE_LINE2,SEMIMAJOR_AXIS,PERIOD,APOGEE,PERIGEE,DECAYED
53592.0,STARLINK-4672,PAYLOAD,2024-05-06 21:18:56,15.08852563,0.0001538,53.2185,20.0927,77.0729,283.0435,0.00030615,4.589e-05,0.0,0 STARLINK-4672,1 53592U 22104E   24127.88815711  .00004589  00000-0  30615-3 0  9992,2 53592  53.2185  20.0927 0001538  77.0729 283.0435 15.08852563 93504,6917.842,95.437,540.771,538.643,0.0
53592.0,STARLINK-4672,PAYLOAD,2024-05-06 22:54:19,15.08854591,0.0001188,53.2184,19.7965,79.6459,280.4667,0.00025699,3.806e-05,0.0,0 STARLINK-4672,1 53592U 22104E   24127.95439486  .00003806  00000-0  25699-3 0  9998,2 53592  53.2184  19.7965 0001188  79.6459 280.4667 15.08854591 94534,6917.836,95.437,540.523,538.879,0.0
53592.0,STARLINK-4672,PAYLOAD,2024-05-07 00:29:42,15.08865939,0.0001433,53.2182,19.4998,80.2944,279.821,0.00045061,6.896e-05,0.0,0 STARLINK-4672,1 53592U 22104E   24128.02063111  .00006896  00000-0  45061-3 0  9992,2 53592  53.2182  19.4998 0001433  80.2944 279.8210 15.08865939 93527,6917.801,95.436,540.657,538.675,0.0
53592.0,STARLINK-4672,PAYLOAD,2024-05-07 10:02:00,15.08878819,0.0001452,53.2179,17.7171,77.1604,282.9551,0.00074251,0.00011561,0.0,0 STARLINK-4672,1 53592U 22104E   24128.41806238  .00011561  00000-0  74251-3 0  9998,2 53592  53.2179  17.7171 0001452  77.1604 282.9551 15.08878819 94600,6917.762,95.435,540.631,538.622,0.0
53592.0,STARLINK-4672,PAYLOAD,2024-05-07 21:09:43,15.08827461,0.0001307,53.2193,15.6349,85.3749,274.7393,-9.4058e-05,-1.784e-05,0.0,0 STARLINK-4672,1 53592U 22104E   24128.88175234 -.00001784  00000-0 -94058-4 0  9990,2 53592  53.2193  15.6349 0001307  85.3749 274.7393 15.08827461 93654,6917.919,95.438,540.688,538.88,0.0
53592.0,STARLINK-4672,PAYLOAD,2024-05-08 09:52:49,15.08831823,0.0001549,53.2187,13.2537,96.9978,263.119,0.001135,0.00017818,0.0,0 STARLINK-4672,1 53592U 22104E   24129.41167990  .00017818  00000-0  11350-2 0  9995,2 53592  53.2187  13.2537 0001549  96.9978 263.1190 15.08831823 94756,6917.905,95.438,540.842,538.699,0.0
53592.0,STARLINK-4672,PAYLOAD,2024-05-08 22:35:54,15.08841946,0.0001422,53.2191,10.8747,96.8256,263.2898,0.00075992,0.00011827,0.0,0 STARLINK-4672,1 53592U 22104E   24129.94160056  .00011827  00000-0  75992-3 0  9996,2 53592  53.2191  10.8747 0001422  96.8256 263.2898 15.08841946 94837,6917.874,95.437,540.723,538.756,0.0
53592.0,STARLINK-4672,PAYLOAD,2024-05-09 20:51:17,15.08852797,0.0001329,53.2192,6.711,98.7473,261.367,0.00059505,9.198e-05,0.0,0 STARLINK-4672,1 53592U 22104E   24130.86895800  .00009198  00000-0  59505-3 0  9991,2 53592  53.2192   6.7110 0001329  98.7473 261.3670 15.08852797 93959,6917.841,95.437,540.626,538.787,0.0
53592.0,STARLINK-4672,PAYLOAD,2024-05-09 22:26:41,15.08850071,0.0001299,53.2192,6.4138,97.7891,262.3249,0.00048277,7.406e-05,0.0,0 STARLINK-4672,1 53592U 22104E   24130.93519824  .00007406  00000-0  48277-3 0  9992,2 53592  53.2192   6.4138 0001299  97.7891 262.3249 15.08850071 94985,6917.85,95.437,540.613,538.816,0.0
53592.0,STARLINK-4672,PAYLOAD,2024-05-10 01:37:27,15.08851132,0.0001297,53.2193,5.8193,97.6949,262.4191,0.0004545,6.955e-05,0.0,0 STARLINK-4672,1 53592U 22104E   24131.06767780  .00006955  00000-0  45450-3 0  9991,2 53592  53.2193   5.8193 0001297  97.6949 262.4191 15.08851132 95001,6917.846,95.437,540.609,538.814,0.0
53592.0,STARLINK-4672,PAYLOAD,2024-05-10 20:42:05,15.08840356,0.0001374,53.2192,2.2502,100.1141,260.0007,0.00011588,1.557e-05,0.0,0 STARLINK-4672,1 53592U 22104E   24131.86256131  .00001557  00000-0  11588-3 0  9990,2 53592  53.2192   2.2502 0001374 100.1141 260.0007 15.08840356 94101,6917.879,95.438,540.695,538.794,0.0
53592.0,STARLINK-4672,PAYLOAD,2024-05-11 22:08:15,15.08788852,0.0001227,53.2187,357.4908,85.7616,274.3517,-0.0011739,-0.00018895,0.0,0 STARLINK-4672,1 53592U 22104E   24132.92240491 -.00018895  00000-0 -11739-2 0  9992,2 53592  53.2187 357.4908 0001227  85.7616 274.3517 15.08788852 94265,6918.037,95.441,540.751,539.053,0.0
53592.0,STARLINK-4672,PAYLOAD,2024-05-12 07:40:35,15.08777485,0.0001222,53.2186,355.7068,85.2688,274.8443,-0.0014719,-0.00023596,0.0,0 STARLINK-4672,1 53592U 22104E   24133.31985392 -.00023596  00000-0 -14719-2 0  9997,2 53592  53.2186 355.7068 0001222  85.2688 274.8443 15.08777485 95344,6918.071,95.442,540.782,539.091,0.0
53592.0,STARLINK-4672,PAYLOAD,2024-05-12 20:23:41,15.08812286,0.0001267,53.2192,353.3296,76.531,283.5823,0.00028008,4.169e-05,0.0,0 STARLINK-4672,1 53592U 22104E   24133.84978093  .00004169  00000-0  28008-3 0  9995,2 53592  53.2192 353.3296 0001267  76.5310 283.5823 15.08812286 94406,6917.965,95.439,540.707,538.954,0.0
53592.0,STARLINK-4672,PAYLOAD,2024-05-12 21:59:04,15.08802976,0.0002198,53.2184,353.0312,46.9621,313.1555,0.00021157,3.077e-05,0.0,0 STARLINK-4672,1 53592U 22104E   24133.91602845  .00003077  00000-0  21157-3 0  9997,2 53592  53.2184 353.0312 0002198  46.9621 313.1555 15.08802976 95434,6917.994,95.44,541.379,538.338,0.0
53592.0,STARLINK-4672,PAYLOAD,2024-05-13 07:31:24,15.08825126,0.0001352,53.2175,351.2504,98.9724,261.1421,0.0020088,0.00031814,0.0,0 STARLINK-4672,1 53592U 22104E   24134.31347387  .00031814  00000-0  20088-2 0  9990,2 53592  53.2175 351.2504 0001352  98.9724 261.1421 15.08825126 95491,6917.926,95.438,540.726,538.856,0.0
53592.0,STARLINK-4672,PAYLOAD,2024-05-14 07:22:09,15.08879796,0.0001161,53.2155,346.7865,95.3909,264.7216,0.00087733,0.00013717,0.0,0 STARLINK-4672,1 53592U 22104E   24135.30705210  .00013717  00000-0  87733-3 0  9996,2 53592  53.2155 346.7865 0001161  95.3909 264.7216 15.08879796 95642,6917.759,95.435,540.427,538.821,0.0
53592.0,STARLINK-4672,PAYLOAD,2024-05-14 20:05:14,15.08856421,3.51e-05,53.2182,344.4094,157.113,202.9878,-0.00023078,-3.96e-05,0.0,0 STARLINK-4672,1 53592U 22104E   24135.83696790 -.00003960  00000-0 -23078-3 0  9999,2 53592  53.2182 344.4094 0000351 157.1130 202.9878 15.08856421 94708,6917.83,95.437,539.938,539.452,0.0
53592.0,STARLINK-4672,PAYLOAD,2024-05-14 21:40:37,15.08870087,0.0001304,53.218,344.113,92.3878,267.7264,0.00027202,4.047e-05,0.0,0 STARLINK-4672,1 53592U 22104E   24135.90320660  .00004047  00000-0  27202-3 0  9995,2 53592  53.2180 344.1130 0001304  92.3878 267.7264 15.08870087 95738,6917.788,95.436,540.556,538.751,0.0
53592.0,STARLINK-4672,PAYLOAD,2024-05-15 07:12:55,15.08871002,0.0001291,53.218,342.3266,96.005,264.1089,0.00071672,0.00011147,0.0,0 STARLINK-4672,1 53592U 22104E   24136.30064048  .00011147  00000-0  71672-3 0  9994,2 53592  53.2180 342.3266 0001291  96.0050 264.1089 15.08871002 95796,6917.786,95.436,540.544,538.758,0.0
53592.0,STARLINK-4672,PAYLOAD,2024-05-15 19:56:00,15.0886175,0.0001713,53.2194,339.9477,91.0813,269.0376,0.00063205,9.791e-05,0.0,0 STARLINK-4672,1 53592U 22104E   24136.83055818  .00009791  00000-0  63205-3 0  9992,2 53592  53.2194 339.9477 0001713  91.0813 269.0376 15.08861750 94856,6917.814,95.436,540.864,538.494,0.0
53592.0,STARLINK-4672,PAYLOAD,2024-05-16 07:03:41,15.08872552,0.0001575,53.2192,337.8669,90.9457,269.1716,0.00095354,0.00014934,0.0,0 STARLINK-4672,1 53592U 22104E   24137.29423098  .00014934  00000-0  95354-3 0  9997,2 53592  53.2192 337.8669 0001575  90.9457 269.1716 15.08872552 95944,6917.781,95.435,540.735,538.556,0.0
53592.0,STARLINK-4672,PAYLOAD,2024-05-16 19:46:47,15.0883994,0.000206,53.2178,335.4879,104.1979,255.9242,0.00013577,1.873e-05,0.0,0 STARLINK-4672,1 53592U 22104E   24137.82415701  .00001873  00000-0  13577-3 0  9993,2 53592  53.2178 335.4879 0002060 104.1979 255.9242 15.08839940 95000,6917.881,95.438,541.171,538.32,0.0
53592.0,STARLINK-4672,PAYLOAD,2024-05-16 22:57:33,15.08833314,0.0001563,53.2185,334.8943,102.3168,257.7999,0.00016302,2.307e-05,0.0,0 STARLINK-4672,1 53592U 22104E   24137.95663905  .00002307  00000-0  16302-3 0  9990,2 53592  53.2185 334.8943 0001563 102.3168 257.7999 15.08833314 95020,6917.901,95.438,540.847,538.685,0.0
53592.0,STARLINK-4672,PAYLOAD,2024-05-17 22:48:21,15.08831164,0.0001688,53.2183,330.4343,99.6693,260.4489,0.00043714,6.674e-05,0.0,0 STARLINK-4672,1 53592U 22104E   24138.95025095  .00006674  00000-0  43714-3 0  9991,2 53592  53.2183 330.4343 0001688  99.6693 260.4489 15.08831164 95175,6917.907,95.438,540.94,538.605,0.0
53592.0,STARLINK-4672,PAYLOAD,2024-05-18 13:06:49,15.08848002,0.0001679,53.221,327.7584,100.6583,259.4598,0.00058639,9.059e-05,0.0,0 STARLINK-4672,1 53592U 22104E   24139.54640776  .00009059  00000-0  58639-3 0  9998,2 53592  53.2210 327.7584 0001679 100.6583 259.4598 15.08848002 96284,6917.856,95.437,540.882,538.559,0.0
53592.0,STARLINK-4672,PAYLOAD,2024-05-18 19:28:21,15.08856639,0.0001184,53.2177,326.5704,90.4421,269.6706,0.0007343,0.00011423,0.0,0 STARLINK-4672,1 53592U 22104E   24139.81136477  .00011423  00000-0  73430-3 0  9990,2 53592  53.2177 326.5704 0001184  90.4421 269.6706 15.08856639 95306,6917.83,95.437,540.514,538.875,0.0
53592.0,STARLINK-4672,PAYLOAD,2024-05-19 20:54:30,15.08862797,0.0001165,53.2183,321.8122,91.9864,268.1261,0.00031631,4.753e-05,0.0,0 STARLINK-4672,1 53592U 22104E   24140.87119062  .00004753  00000-0  31631-3 0  9994,2 53592  53.2183 321.8122 0001165  91.9864 268.1261 15.08862797 95460,6917.811,95.436,540.482,538.87,0.0
53592.0,STARLINK-4672,PAYLOAD,2024-05-19 22:29:53,15.08864099,0.0001207,53.2177,321.5133,89.5017,270.6114,0.00031773,4.776e-05,0.0,0 STARLINK-4672,1 53592U 22104E   24140.93742941  .00004776  00000-0  31773-3 0  9991,2 53592  53.2177 321.5133 0001207  89.5017 270.6114 15.08864099 96498,6917.807,95.436,540.507,538.837,0.0
53592.0,STARLINK-4672,PAYLOAD,2024-05-20 20:45:19,15.08825749,0.0001353,53.2165,317.3517,96.7575,263.3571,-0.00029414,-4.964e-05,0.0,0 STARLINK-4672,1 53592U 22104E   24141.86480609 -.00004964  00000-0 -29414-3 0  9994,2 53592  53.2165 317.3517 0001353  96.7575 263.3571 15.08825749 95613,6917.924,95.438,540.725,538.853,0.0
